#dP2024  2 10 18  0  0.00000000      96 __u+U IGS20 EXT  IAC
## 2300 583200.00000000   900.00000000 60350 0.7500000000000
+  117   C06C07C08C09C10C11C12C13C14C16C19C20C21C22C23C24C25
+        C26C27C28C29C30C32C33C34C35C36C37C38C39C40C41C42C43
+        C44C45C46E02E03E04E05E07E08E09E10E11E12E13E14E15E18
+        E19E21E24E25E26E27E30E31E33E34E36G01G03G04G05G06G07
+        G08G09G10G11G12G13G14G15G16G17G18G19G20G21G22G23G24
+        G25G26G27G28G29G30G31G32J02J04R01R02R03R04R05R07R08
+        R09R11R12R13R14R15R16R17R18R19R20R21R22R24R26  0  0
++        11 10 10 10  8 10 10  9  8 11  8  8  9  8  9  9  9
++         9  7  7  7  7  9  8  8  8  8  8 10 11  8  9  8  8
++         9 10  8  7  9  9  9  8  8  9  6  7  7  7  7  8  8
++         8  6  7  7  7  7  6  7  8  7  7  7  7  8  8  6  7
++         6  6  7  7  9  8  7  7  6  6  7  6  6  7  6  7  7
++         7  8  6  7  7  8  6  7  9  9  8  7  7  8  7  7  8
++         8  6  8  7  8  8  8  9  8 10  9  9  9 10  8  0  0
%c M  cc GPS ccc cccc cccc cccc cccc ccccc ccccc ccccc ccccc
%c cc cc ccc ccc cccc cccc cccc cccc ccccc ccccc ccccc ccccc
%f  0.0000000  0.000000000  0.00000000000  0.000000000000000
%f  0.0000000  0.000000000  0.00000000000  0.000000000000000
%i    0    0    0    0      0      0      0      0         0
%i    0    0    0    0      0      0      0      0         0
/* IAC                                ULTRA-RAPID PREDICTION
/* S/V CLOCKS ARE ALIGNED TO GNSS TIME                      
/* G:C1WC2W R:C1PC2P E:C1XC5X C:C2IC6I J:C1CC2S             
/* PCV:IGS20_2290 OL/AL:FES2004  NONE     YN ORB:CoN CLK:CoN
*  2024 02 11 14 30  0.00000000
PC06 -15618.558214  24428.161702 -30674.939701    103.483139
PC07 -11335.403377  40458.034971  -1546.175853   -784.595325
PC08   1573.815039  28446.206959  31162.944904     46.131055
PC09  -6156.392277  24446.917148 -33436.539493   -475.918555
PC10  -5419.641866  41241.196722   5057.158689     89.327162
PC11  -9529.970904 -12414.362290 -23033.185236    405.219120
PC12  10855.779673 -18443.224613 -17865.711891    772.476500
PC13   8686.870156  32662.460778  25551.593808    416.413837
PC14  -8017.811120 -23127.631520  13470.127705    167.251383
PC16 -18041.381856  23535.291589 -29827.633115   -333.664013
PC19  12619.970094  15045.071489 -19790.193166   -927.839858
PC20   3085.423925  26916.410717  -6610.493680   -152.701779
PC21   9242.525086 -23534.728884 -11816.426353   -962.342510
PC22  15483.966345  -6198.246530 -22375.833501   -113.634391
PC23 -23774.554880  -3054.029315 -14290.682160   -781.913892
PC24  -8083.114269 -20213.855119  17422.197753    874.868457
PC25 -23070.869012 -15583.488480   1722.565062    323.655455
PC26  10268.991265 -12778.154117  22563.222489   -247.707928
PC27 -18408.120288  17842.424212  11024.134746    269.708380
PC28 -25881.365076   9363.855262  -4613.561457    205.112925
PC29  18293.391613   6081.559983  20171.399662    240.394445
PC30   -709.116019  17686.620343  21573.229899    -24.003648
PC32  -9140.511943  23508.704973  11944.375683   -566.076681
PC33 -12718.664647 -15086.985441  19746.256361   -948.007183
PC34  -1031.077928 -17133.648983 -22009.033780    367.060532
PC35  25507.080586 -10237.495718   4691.389979    436.085793
PC36  22485.466141  16387.321752  -2220.404692    -18.763608
PC37 -10950.322200  12274.213219 -22539.808003   -935.638288
PC38  -6653.055890  24693.328339  33602.512599    136.166661
PC39 -23926.034725  23439.802463 -25691.905502     -7.083865
PC40 -18043.656565  37681.759768  -4438.492912    -56.037084
PC41 -15601.883355   5264.587018  22585.613275   -889.505783
PC42  -2174.912776 -27367.112157   5134.696260   -455.446941
PC43 -17644.218420  -6891.998377 -20509.334020     60.027187
PC44  17756.970611 -18566.105933 -10866.849966    381.367958
PC45  23656.051507   3006.019666  14504.275341    -69.435545
PC46   9037.869199  20304.975348 -16913.604198   -122.996605
PE02  19150.416691  14938.745613  16921.504712    102.549356
PE03  17766.085732   3451.380056 -23425.734284    -93.133049
PE04 -21967.810775  15868.743754  11918.075560   -324.861648
PE05   3260.176517  20490.334511 -21107.741503   4719.052582
PE07  13533.896658 -25620.828314   6070.434637   -103.225023
PE08  21979.707996 -15360.807156 -12541.106854   -222.252303
PE09 -13635.936862  25579.077848  -5968.209994   -332.331227
PE10 -19706.193489  10439.971054  19464.076730   -601.144367
PE11  -8936.559942  14676.645178  24100.684021   3252.242869
PE12 -26400.950114   5121.358589  12395.894432   -901.864062
PE13   9650.736952 -14417.923142 -23971.635071    -20.153670
PE14   5322.400265 -27876.656658 -15692.501799     36.450036
PE15  26655.454645  -4773.248933 -11927.492332    -85.225403
PE18    836.551295  18538.353119  14737.039817    314.863226
PE19 -16377.832694  -5718.026488  23993.466544   -635.108573
PE21 -11997.352708 -27054.113458   -322.354773   -578.490294
PE24  -2956.443279  23752.229107 -17454.275150   -592.484720
PE25  11747.864535  27175.013370    -78.740636      0.747257
PE26 -13361.161417 -15490.391891 -21386.784091    365.758560
PE27   2537.760317 -23951.894595  17189.372484   -272.115220
PE30  15575.227255  -6473.112693  24306.118602   -898.508051
PE31 -15395.276867   6782.635430 -24356.398282    -15.765857
PE33 -27560.171775  -7829.307868  -7433.550651      7.428996
PE34  27796.726940   7469.501408   6912.828180    -94.057444
PE36  12679.092769  15480.300537  21814.601337   -184.491011
PG01 -18173.962512 -12348.514657 -15504.313224    169.137957
PG03 -11963.432676 -23720.022939   1645.188315    186.451714
PG04  -5097.475405 -16405.185516  20233.385439    289.100548
PG05   4711.865847  24049.362728   9950.962698   -161.412284
PG06 -21897.230709   6643.387563  13644.729382    411.155179
PG07 -25653.096401  -6214.266877   5214.754525    -59.454337
PG08   1416.788252 -21575.255533 -15226.462414   -166.489277
PG09 -15217.038803  -4208.032331  21284.644033     88.679819
PG10  14667.414238  -2875.190708 -21776.568128     35.966041
PG11 -11496.492119  12574.271878  20388.005892   -572.241020
PG12  10031.982589  24595.189735   1080.715142   -476.953116
PG13 -11667.767143  21804.068870  -9586.117956    624.564235
PG14 -16667.660545  -1127.428737 -20663.303441    322.987442
PG15   1428.698845  21968.699605 -15200.833392    126.622562
PG16   2857.137085 -21751.652246  14305.484599   -364.933006
PG17 -20041.264507   8675.178149 -14797.386950    717.325963
PG18  25923.647351   5246.216571   3363.058762   -553.254688
PG19 -20331.368062  15043.728265  -7662.952103    439.213904
PG20  -4796.140202  17517.997440  19495.422177    387.896187
PG21  -6059.631028 -14650.033951 -20969.040071    135.304252
PG22 -13169.368058   7542.053781 -21389.651861     32.947819
PG23  17772.130629  10087.991626 -17046.297402    153.979491
PG24   8947.010170  15115.796111 -20435.637100   -429.981730
PG25  16640.801927  18011.696414  10195.872694    488.262448
PG26   9619.819570 -13824.017716  20313.923176    191.315850
PG27  11903.942353 -22996.458902  -5024.427786     -3.103677
PG28  23433.464535  -6143.758298  10860.333014   -127.581223
PG29  13611.299959   6778.656441  21735.898205   -607.175724
PG30 -26026.134730   1604.136341  -5627.825084   -433.938528
PG31  16827.743630 -10575.408440  17600.090044   -227.730839
PG32  19489.823407 -12284.268995 -12830.519337   -611.043110
PJ02 -21032.638124  24578.999349 -22402.371014     -1.891827
PJ04 -26673.334185  30580.456037  17607.451701     50.938083
PR01  -7758.222095 -12040.428503  21115.242713     76.901758
PR02 -12002.907171   6645.741215  21568.502018    -22.459541
PR03  -9733.568255  21608.084345   9566.523151     94.330642
PR04  -2470.511248  24294.350756  -7368.662551    222.991257
PR05   6206.811957  14054.973179 -20354.490035    126.749544
PR07   9408.313418 -22039.395422  -8621.595614     75.580656
PR08   2038.853865 -24222.828708   7736.367813    -74.380989
PR09  18149.999704   4594.601212  17296.197122    169.427828
PR11  -7719.232940 -17784.598664  16590.162978     34.683048
PR12 -19086.540472 -16851.551637  -1383.523392     36.634793
PR13 -18870.391033  -6938.366534 -15715.651847    -44.259128
PR14  -6510.084981   9142.588513 -22901.381862     26.062000
PR15   8729.545068  18313.820271 -15448.588651     82.286609
PR16  19093.670465  16852.387234   1119.892530     23.208561
PR17 -18271.569707  11723.557411  13377.168024     60.374700
PR18  -2823.605824  11407.389246  22665.720727    126.857705
PR19  12663.513370   6552.895814  21153.116253   -265.422722
PR20  24724.282644  -3917.812273   4783.161228   -108.113469
PR21  18212.652442 -11581.797817 -13606.691117    -76.148226
PR22   1819.227394 -11490.241798 -22670.090260    107.582783
PR24 -24632.601633   5161.505587  -4109.141986    -43.491537
PR26   2416.151184 -24494.745223   6761.281938   -198.898076
EOF
